CTC1_L_00499024-03
1 56581U 22194YS  26037.47807870  .00000000  00000+0  00000-0 0  9991
2 56581 101.0000 276.0000 0000000   0.0000 228.0000 12.65579224    10
CTC1_L_00499024-04
1 56582U 24078GU  26037.47807870  .00000000  00000+0  00000-0 0  9995
2 56582 101.0000 276.0000 0000000   0.0000 273.0000 12.65579224    11
CTC1_L_00499024-05
1 56583U 25804CO  26037.47807870  .00000000  00000+0  00000-0 0  9994
2 56583 101.0000 276.0000 0000000   0.0000 318.0000 12.65579224    12
CTC1_L_00499024-06
1 56584U 24151VG  26037.47807870  .00000000  00000+0  00000-0 0  9999
2 56584 101.0000 276.0000 0000000   0.0000   3.0000 12.65579224    14
CTC1_L_00499024-07
1 56585U 24449KO  26037.47807870  .00000000  00000+0  00000-0 0  9990
2 56585 101.0000 276.0000 0000000   0.0000  48.0000 12.65579224    14
CTC1_L_00499024-08
1 56586U 23326TY  26037.47807870  .00000000  00000+0  00000-0 0  9994
2 56586 101.0000 276.0000 0000000   0.0000  93.0000 12.65579224    15
CTC1_L_00499025-01
1 56587U 23024MQ  26037.47807870  .00000000  00000+0  00000-0 0  9990
2 56587 101.0000 288.0000 0000000   0.0000 144.0000 12.65579224    16
CTC1_L_00499025-02
1 56588U 25487BB  26037.47807870  .00000000  00000+0  00000-0 0  9996
2 56588 101.0000 288.0000 0000000   0.0000 189.0000 12.65579224    16
CTC1_L_00499025-03
1 56589U 22813BA  26037.47807870  .00000000  00000+0  00000-0 0  9997
2 56589 101.0000 288.0000 0000000   0.0000 234.0000 12.65579224    18
CTC1_L_00499025-04
1 56590U 26416PN  26037.47807870  .00000000  00000+0  00000-0 0  9992
2 56590 101.0000 288.0000 0000000   0.0000 279.0000 12.65579224    19
CTC1_L_00499025-05
1 56591U 25159LY  26037.47807870  .00000000  00000+0  00000-0 0  9996
2 56591 101.0000 288.0000 0000000   0.0000 324.0000 12.65579224    11
CTC1_L_00499025-06
1 56592U 22445NY  26037.47807870  .00000000  00000+0  00000-0 0  9992
2 56592 101.0000 288.0000 0000000   0.0000   9.0000 12.65579224    12
CTC1_L_00499025-07
1 56593U 23040RV  26037.47807870  .00000000  00000+0  00000-0 0  9995
2 56593 101.0000 288.0000 0000000   0.0000  54.0000 12.65579224    13
CTC1_L_00499025-08
1 56594U 26095RR  26037.47807870  .00000000  00000+0  00000-0 0  9999
2 56594 101.0000 288.0000 0000000   0.0000  99.0000 12.65579224    13
CTC1_L_00499026-01
1 56595U 24084PY  26037.47807870  .00000000  00000+0  00000-0 0  9996
2 56595 101.0000 300.0000 0000000   0.0000 150.0000 12.65579224    17
CTC1_L_00499026-02
1 56596U 22924KN  26037.47807870  .00000000  00000+0  00000-0 0  9998
2 56596 101.0000 300.0000 0000000   0.0000 195.0000 12.65579224    17
CTC1_L_00499026-03
1 56597U 23218OS  26037.47807870  .00000000  00000+0  00000-0 0  9996
2 56597 101.0000 300.0000 0000000   0.0000 240.0000 12.65579224    19
CTC1_L_00499026-04
1 56598U 22070IK  26037.47807870  .00000000  00000+0  00000-0 0  9992
2 56598 101.0000 300.0000 0000000   0.0000 285.0000 12.65579224    19
CTC1_L_00499026-05
1 56599U 26543CK  26037.47807870  .00000000  00000+0  00000-0 0  9992
2 56599 101.0000 300.0000 0000000   0.0000 330.0000 12.65579224    11
CTC1_L_00499026-06
1 56600U 26096HS  26037.47807870  .00000000  00000+0  00000-0 0  9998
2 56600 101.0000 300.0000 0000000   0.0000  15.0000 12.65579224    14
CTC1_L_00499026-07
1 56601U 22054TU  26037.47807870  .00000000  00000+0  00000-0 0  9999
2 56601 101.0000 300.0000 0000000   0.0000  60.0000 12.65579224    15
CTC1_L_00499026-08
1 56602U 23279IG  26037.47807870  .00000000  00000+0  00000-0 0  9990
2 56602 101.0000 300.0000 0000000   0.0000 105.0000 12.65579224    16
CTC1_L_00499027-01
1 56603U 26516WL  26037.47807870  .00000000  00000+0  00000-0 0  9998
2 56603 101.0000 312.0000 0000000   0.0000 156.0000 12.65579224    16
CTC1_L_00499027-02
1 56604U 24652TJ  26037.47807870  .00000000  00000+0  00000-0 0  9998
2 56604 101.0000 312.0000 0000000   0.0000 201.0000 12.65579224    18
CTC1_L_00499027-03
1 56605U 23047WS  26037.47807870  .00000000  00000+0  00000-0 0  9996
2 56605 101.0000 312.0000 0000000   0.0000 246.0000 12.65579224    18
CTC1_L_00499027-04
1 56606U 22861VN  26037.47807870  .00000000  00000+0  00000-0 0  9990
2 56606 101.0000 312.0000 0000000   0.0000 291.0000 12.65579224    19
CTC1_L_00499027-05
1 56607U 23269GD  26037.47807870  .00000000  00000+0  00000-0 0  9994
2 56607 101.0000 312.0000 0000000   0.0000 336.0000 12.65579224    10
CTC1_L_00499027-06
1 56608U 26100TB  26037.47807870  .00000000  00000+0  00000-0 0  9992
2 56608 101.0000 312.0000 0000000   0.0000  21.0000 12.65579224    12
CTC1_L_00499027-07
1 56609U 22588LF  26037.47807870  .00000000  00000+0  00000-0 0  9999
2 56609 101.0000 312.0000 0000000   0.0000  66.0000 12.65579224    12
CTC1_L_00499027-08
1 56610U 25045O   26037.47807870  .00000000  00000+0  00000-0 0  9992
2 56610 101.0000 312.0000 0000000   0.0000 111.0000 12.65579224    15
CTC1_L_00499028-01
1 56611U 22002KY  26037.47807870  .00000000  00000+0  00000-0 0  9993
2 56611 101.0000 324.0000 0000000   0.0000 162.0000 12.65579224    15
CTC1_L_00499028-02
1 56612U 26790JQ  26037.47807870  .00000000  00000+0  00000-0 0  9992
2 56612 101.0000 324.0000 0000000   0.0000 207.0000 12.65579224    16
CTC1_L_00499028-03
1 56613U 26132F   26037.47807870  .00000000  00000+0  00000-0 0  9993
2 56613 101.0000 324.0000 0000000   0.0000 252.0000 12.65579224    17
CTC1_L_00499028-04
1 56614U 25990FL  26037.47807870  .00000000  00000+0  00000-0 0  9995
2 56614 101.0000 324.0000 0000000   0.0000 297.0000 12.65579224    17
CTC1_L_00499028-05
1 56615U 24230TA  26037.47807870  .00000000  00000+0  00000-0 0  9992
2 56615 101.0000 324.0000 0000000   0.0000 342.0000 12.65579224    19
CTC1_L_00499028-06
1 56616U 26214XJ  26037.47807870  .00000000  00000+0  00000-0 0  9997
2 56616 101.0000 324.0000 0000000   0.0000  27.0000 12.65579224    10
CTC1_L_00499028-07
1 56617U 23824IV  26037.47807870  .00000000  00000+0  00000-0 0  9992
2 56617 101.0000 324.0000 0000000   0.0000  72.0000 12.65579224    11
CTC1_L_00499028-08
1 56618U 22537MO  26037.47807870  .00000000  00000+0  00000-0 0  9993
2 56618 101.0000 324.0000 0000000   0.0000 117.0000 12.65579224    12
CTC1_L_00499029-01
1 56619U 26185XM  26037.47807870  .00000000  00000+0  00000-0 0  9997
2 56619 101.0000 336.0000 0000000   0.0000 168.0000 12.65579224    12
CTC1_L_00499029-02
1 56620U 24016SE  26037.47807870  .00000000  00000+0  00000-0 0  9990
2 56620 101.0000 336.0000 0000000   0.0000 213.0000 12.65579224    15
CTC1_L_00499029-03
1 56621U 26814PZ  26037.47807870  .00000000  00000+0  00000-0 0  9999
2 56621 101.0000 336.0000 0000000   0.0000 258.0000 12.65579224    15
CTC1_L_00499029-04
1 56622U 24724EJ  26037.47807870  .00000000  00000+0  00000-0 0  9998
2 56622 101.0000 336.0000 0000000   0.0000 303.0000 12.65579224    17
CTC1_L_00499029-05
1 56623U 24274ZI  26037.47807870  .00000000  00000+0  00000-0 0  9999
2 56623 101.0000 336.0000 0000000   0.0000 348.0000 12.65579224    17
CTC1_L_00499029-06
1 56624U 25184T   26037.47807870  .00000000  00000+0  00000-0 0  9991
2 56624 101.0000 336.0000 0000000   0.0000  33.0000 12.65579224    19
CTC1_L_00499029-07
1 56625U 24625FH  26037.47807870  .00000000  00000+0  00000-0 0  9991
2 56625 101.0000 336.0000 0000000   0.0000  78.0000 12.65579224    19
CTC1_L_00499029-08
1 56626U 24177ID  26037.47807870  .00000000  00000+0  00000-0 0  9994
2 56626 101.0000 336.0000 0000000   0.0000 123.0000 12.65579224    11
CTC1_L_00499030-01
1 56627U 25352SZ  26037.47807870  .00000000  00000+0  00000-0 0  9991
2 56627 101.0000 348.0000 0000000   0.0000 174.0000 12.65579224    11
CTC1_L_00499030-02
1 56628U 25714KR  26037.47807870  .00000000  00000+0  00000-0 0  9994
2 56628 101.0000 348.0000 0000000   0.0000 219.0000 12.65579224    12
CTC1_L_00499030-03
1 56629U 25068SD  26037.47807870  .00000000  00000+0  00000-0 0  9997
2 56629 101.0000 348.0000 0000000   0.0000 264.0000 12.65579224    13
CTC1_L_00499030-04
1 56630U 26141PG  26037.47807870  .00000000  00000+0  00000-0 0  9992
2 56630 101.0000 348.0000 0000000   0.0000 309.0000 12.65579224    15
CTC1_L_00499030-05
1 56631U 25997AD  26037.47807870  .00000000  00000+0  00000-0 0  9991
2 56631 101.0000 348.0000 0000000   0.0000 354.0000 12.65579224    16
CTC1_L_00499030-06
1 56632U 24917VI  26037.47807870  .00000000  00000+0  00000-0 0  9993
2 56632 101.0000 348.0000 0000000   0.0000  39.0000 12.65579224    17
CTC1_L_00499030-07
1 56633U 26941AE  26037.47807870  .00000000  00000+0  00000-0 0  9993
2 56633 101.0000 348.0000 0000000   0.0000  84.0000 12.65579224    18
CTC1_L_00499030-08
1 56634U 25567DJ  26037.47807870  .00000000  00000+0  00000-0 0  9997
2 56634 101.0000 348.0000 0000000   0.0000 129.0000 12.65579224    19
